{
    "links": {
        "self": "http://www.neowsapp.com/rest/v1/neo/3767931?api_key=iIulBulltgU6a56xZRHN4H3l9WmuAYTsLGpBGhQ2"
    },
    "id": "3767931",
    "neo_reference_id": "3767931",
    "name": "(2017 BT93)",
    "designation": "2017 BT93",
    "nasa_jpl_url": "http://ssd.jpl.nasa.gov/sbdb.cgi?sstr=3767931",
    "absolute_magnitude_h": 23.3,
    "estimated_diameter": {
        "kilometers": {
            "estimated_diameter_min": 0.058150704,
            "estimated_diameter_max": 0.130028927
        },
        "meters": {
            "estimated_diameter_min": 58.1507039646,
            "estimated_diameter_max": 130.0289270043
        },
        "miles": {
            "estimated_diameter_min": 0.0361331611,
            "estimated_diameter_max": 0.0807962044
        },
        "feet": {
            "estimated_diameter_min": 190.7831555951,
            "estimated_diameter_max": 426.6041048727
        }
    },
    "is_potentially_hazardous_asteroid": false,
    "close_approach_data": [
        {
            "close_approach_date": "2017-02-13",
            "close_approach_date_full": "2017-Feb-13 21:00",
            "epoch_date_close_approach": 1487019600000,
            "relative_velocity": {
                "kilometers_per_second": "24.2199412263",
                "kilometers_per_hour": "87191.7884146966",
                "miles_per_hour": "54177.5865291208"
            },
            "miss_distance": {
                "astronomical": "0.0761330628",
                "lunar": "29.6157614292",
                "kilometers": "11389344.031456236",
                "miles": "7077010.2158226168"
            },
            "orbiting_body": "Earth"
        }
    ],
    "orbital_data": {
        "orbit_id": "6",
        "orbit_determination_date": "2017-04-06 08:20:24",
        "first_observation_date": "2017-01-31",
        "last_observation_date": "2017-02-13",
        "data_arc_in_days": 13,
        "observations_used": 33,
        "orbit_uncertainty": "8",
        "minimum_orbit_intersection": ".0671838",
        "jupiter_tisserand_invariant": "3.012",
        "epoch_osculation": "2457785.5",
        "eccentricity": ".7910840766593529",
        "semi_major_axis": "2.376245512662607",
        "inclination": "6.300662898736864",
        "ascending_node_longitude": "105.2965169924199",
        "orbital_period": "1337.936160142277",
        "perihelion_distance": ".4964355253619778",
        "perihelion_argument": "135.5963635947623",
        "aphelion_distance": "4.256055499963235",
        "perihelion_time": "2457842.793243506005",
        "mean_anomaly": "344.5840419919823",
        "mean_motion": ".2690711341277429",
        "equinox": "J2000",
        "orbit_class": {
            "orbit_class_type": "APO",
            "orbit_class_description": "Near-Earth asteroid orbits which cross the Earth’s orbit similar to that of 1862 Apollo",
            "orbit_class_range": "a (semi-major axis) > 1.0 AU; q (perihelion) < 1.017 AU"
        }
    },
    "is_sentry_object": false
}